ION SCV-008             
1 55051U 23001AU  26140.21666023  .00004652  00000+0  17153-3 0  9997
2 55051  97.5696 236.0776 0016483 110.4655 249.8356 15.28191224187069
ION SCV-007             
1 55060U 23001BD  26140.16139427  .00000259  00000+0  43374-4 0  9998
2 55060  97.9021 203.7304 0013688  69.3460 290.9217 14.77524338182116
HUYGENS                 
1 55093U 23001CN  26140.07276024  .00007317  00000+0  18808-3 0  9994
2 55093  97.3258 207.2466 0009963 174.2846 185.8515 15.39532207188045
SHARJAHSAT-1            
1 55104U 23001CZ  26140.13182521  .00014565  00000+0  28071-3 0  9998
2 55104  97.3180 208.5309 0005895 186.7493 173.3679 15.47942526188151
HORUS 1                 
1 55690U 23025A   26140.17152797  .00004011  00000+0  17217-3 0  9995
2 55690  97.3465 215.3539 0001045 134.9240 225.2082 15.23268233179780
HORUS 2                 
1 55844U 23032A   26140.20720891  .00004073  00000+0  17384-3 0  9997
2 55844  97.3535 216.1670 0003083 132.4885 227.6613 15.23450609177229
GLOBAL-19               
1 55982U 23041B   26140.05167147  .00010734  00000+0  28344-3 0  9991
2 55982  42.0028   6.0370 0005427 156.9364 203.1720 15.38413113177599
BRO-9                   
1 56185U 23054H   26139.79656053  .00200151  00000+0  89492-3 0  9994
2 56185  97.2966  56.1505 0008086 118.2434 241.9653 15.83643171174576
ION SCV-010             
1 56192U 23054Q   26140.16145154  .00003116  00000+0  12415-3 0  9993
2 56192  97.3811  30.0203 0011420 309.4336  50.5891 15.25923390171925
TELEOS-2                
1 56310U 23057C   26140.16250591  .00004677  00000+0  34276-3 0  9992
2 56310   9.9888  48.2284 0000830 267.0484  92.9635 14.96364380168596
SNIPE 4                 
1 56744U 23072B   26140.17570941  .00016410  00000+0  39751-3 0  9996
2 56744  97.5274 345.3147 0006933  74.6891 285.5121 15.41145874165797
SNIPE 2                 
1 56745U 23072C   26140.16767067  .00020731  00000+0  43609-3 0  9991
2 56745  97.5269 348.1627 0006420  99.4591 260.7383 15.45314964165910
2023-072G               
1 56749U 23072G   26140.16910039  .00022603  00000+0  42053-3 0  9996
2 56749  97.4926 346.9396 0005573  90.9876 269.2013 15.48871436166125
GEISAT PRECURSOR        
1 56934U 23084C   26140.17763098  .00005415  00000+0  16590-3 0  9996
2 56934  97.6192 280.2242 0007194  89.2102 270.9964 15.34223039163230
BLACKJACK ACES-3        
1 56950U 23084U   26140.09612817  .00003300  00000+0  16442-3 0  9994
2 56950  97.6178 275.0842 0004073 101.7633 258.4058 15.18275173162908
BLACKJACK ACES-2        
1 56955U 23084Z   26140.10262685  .00003652  00000+0  18162-3 0  9996
2 56955  97.6173 275.1757 0002411  90.9568 269.1942 15.18281513162911
BLACKJACK ACES-1        
1 56956U 23084AA  26139.95875113  .00004443  00000+0  22069-3 0  9994
2 56956  97.6167 274.8081 0001522  95.2318 264.9089 15.18198036112618
ION SCV-011             
1 56957U 23084AB  26140.05083991  .00003792  00000+0  13962-3 0  9991
2 56957  98.1381 324.7302 0008324 129.7640 230.4331 15.28538836161510
GHOST-3                 
1 56958U 23084AC  26140.16258486  .00012719  00000+0  25461-3 0  9993
2 56958  97.6190 287.2590 0006745  45.9475 314.2329 15.46880506163687
TOMORROW-R2             
1 56962U 23084AG  26140.17607035  .00168741  12592-4  55703-3 0  9990
2 56962  97.5947 300.7420 0002650 268.6073  91.4896 15.90445281164582
AFR-1                   
1 56964U 23084AJ  26140.14624609  .00003278  00000+0  12162-3 0  9996
2 56964  97.6240 276.1747 0011994  80.2897 279.9696 15.28285801162942
METEOR-M2 3             
1 57166U 23091A   26140.20431546 -.00000015  00000+0  12280-4 0  9991
2 57166  98.6097 195.7523 0002871 243.5040 116.5845 14.24044120150530
UMKA 1 (RS40S)          
1 57172U 23091G   26140.12725823  .00004016  00000+0  18691-3 0  9998
2 57172  97.5063 198.9372 0012084 210.7613 149.2915 15.20457496159748
2023-091H               
1 57173U 23091H   26140.15999384  .00007642  00000+0  28252-3 0  9999
2 57173  97.5057 203.1371 0009523 203.2934 156.7875 15.27961104160021
2023-091J               
1 57174U 23091J   26140.16199125  .00002603  00000+0  14798-3 0  9998
2 57174  97.5071 193.6593 0011877 240.6971 119.3074 15.13714061159395
CUBEBEL 2 (EU11S)       
1 57175U 23091K   26140.16974922  .00008438  00000+0  30730-3 0  9991
2 57175  97.5060 203.1500 0009583 204.8783 155.1996 15.28420219160021
SITRO-AIS 5 (KATYS)     
1 57176U 23091L   26140.19249644  .00008838  00000+0  31846-3 0  9994
2 57176  97.5069 203.8387 0011423 193.1844 166.9099 15.28737548160069
ZORKIY-2M 1             
1 57177U 23091M   26140.18058119  .00004576  00000+0  21223-3 0  9992
2 57177  97.5103 199.2407 0012766 207.5596 152.4964 15.20494333159743
CUBESX-HSE 3 (RS42S)    
1 57178U 23091N   26140.19702312  .00009851  00000+0  33676-3 0  9991
2 57178  97.5100 205.4453 0011136 183.1511 176.9661 15.30425973160144
MONITOR-3 (RS58S)       
1 57180U 23091Q   26140.16118727  .00007306  00000+0  27626-3 0  9993
2 57180  97.5092 203.4126 0011713 190.6924 169.4067 15.27211628160013
