OBJECT_NAME,OBJECT_ID,EPOCH,MEAN_MOTION,ECCENTRICITY,INCLINATION,RA_OF_ASC_NODE,ARG_OF_PERICENTER,MEAN_ANOMALY,EPHEMERIS_TYPE,CLASSIFICATION_TYPE,NORAD_CAT_ID,ELEMENT_SET_NO,REV_AT_EPOCH,BSTAR,MEAN_MOTION_DOT,MEAN_MOTION_DDOT
ION SCV-008,2023-001AU,2026-05-20T05:11:59.443872,15.28191224,.0016483,97.5696,236.0776,110.4655,249.8356,0,U,55051,999,18706,.17153E-3,.4652E-4,0
ION SCV-007,2023-001BD,2026-05-20T03:52:24.464928,14.77524338,.0013688,97.9021,203.7304,69.3460,290.9217,0,U,55060,999,18211,.43374E-4,.259E-5,0
HUYGENS,2023-001CN,2026-05-20T01:44:46.484736,15.39532207,.0009963,97.3258,207.2466,174.2846,185.8515,0,U,55093,999,18804,.18808E-3,.7317E-4,0
SHARJAHSAT-1,2023-001CZ,2026-05-20T03:09:49.698144,15.47942526,.0005895,97.3180,208.5309,186.7493,173.3679,0,U,55104,999,18815,.28071E-3,.14565E-3,0
HORUS 1,2023-025A,2026-05-20T04:07:00.016608,15.23268233,.0001045,97.3465,215.3539,134.9240,225.2082,0,U,55690,999,17978,.17217E-3,.4011E-4,0
HORUS 2,2023-032A,2026-05-20T04:58:22.849824,15.23450609,.0003083,97.3535,216.1670,132.4885,227.6613,0,U,55844,999,17722,.17384E-3,.4073E-4,0
GLOBAL-19,2023-041B,2026-05-20T01:14:24.415008,15.38413113,.0005427,42.0028,6.0370,156.9364,203.1720,0,U,55982,999,17759,.28344E-3,.10734E-3,0
BRO-9,2023-054H,2026-05-19T19:07:02.829792,15.83643171,.00080868,97.2966,56.1505,118.2434,241.9653,0,U,56185,999,17457,.89492337E-3,.200151E-2,0
ION SCV-010,2023-054Q,2026-05-20T03:52:29.413056,15.25923390,.001142,97.3811,30.0203,309.4336,50.5891,0,U,56192,999,17192,.12415E-3,.3116E-4,0
TELEOS-2,2023-057C,2026-05-20T03:54:00.510624,14.96364380,.000083,9.9888,48.2284,267.0484,92.9635,0,U,56310,999,16859,.34276E-3,.4677E-4,0
SNIPE 4,2023-072B,2026-05-20T04:13:01.293024,15.41145874,.0006933,97.5274,345.3147,74.6891,285.5121,0,U,56744,999,16579,.39751E-3,.1641E-3,0
SNIPE 2,2023-072C,2026-05-20T04:01:26.745888,15.45314964,.000642,97.5269,348.1627,99.4591,260.7383,0,U,56745,999,16591,.43609E-3,.20731E-3,0
2023-072G,2023-072G,2026-05-20T04:03:30.273696,15.48871436,.0005573,97.4926,346.9396,90.9876,269.2013,0,U,56749,999,16612,.42053E-3,.22603E-3,0
GEISAT PRECURSOR,2023-084C,2026-05-20T04:15:47.316672,15.34223039,.0007194,97.6192,280.2242,89.2102,270.9964,0,U,56934,999,16323,.1659E-3,.5415E-4,0
BLACKJACK ACES-3,2023-084U,2026-05-20T02:18:25.473888,15.18275173,.0004073,97.6178,275.0842,101.7633,258.4058,0,U,56950,999,16290,.16442E-3,.33E-4,0
BLACKJACK ACES-2,2023-084Z,2026-05-20T02:27:46.959840,15.18281513,.0002411,97.6173,275.1757,90.9568,269.1942,0,U,56955,999,16291,.18162E-3,.3652E-4,0
BLACKJACK ACES-1,2023-084AA,2026-05-19T23:00:36.097632,15.18198036,.0001522,97.6167,274.8081,95.2318,264.9089,0,U,56956,999,11261,.22069E-3,.4443E-4,0
ION SCV-011,2023-084AB,2026-05-20T01:13:12.568224,15.28538836,.0008324,98.1381,324.7302,129.7640,230.4331,0,U,56957,999,16151,.13962E-3,.3792E-4,0
GHOST-3,2023-084AC,2026-05-20T03:54:07.331904,15.46880506,.0006745,97.6190,287.2590,45.9475,314.2329,0,U,56958,999,16368,.25461E-3,.12719E-3,0
TOMORROW-R2,2023-084AG,2026-05-20T04:13:32.478240,15.90445281,.000265,97.5947,300.7420,268.6073,91.4896,0,U,56962,999,16458,.55703E-3,.168741E-2,.12592E-4
AFR-1,2023-084AJ,2026-05-20T03:30:35.662176,15.28285801,.0011994,97.6240,276.1747,80.2897,279.9696,0,U,56964,999,16294,.12162E-3,.3278E-4,0
METEOR-M2 3,2023-091A,2026-05-20T04:54:12.855744,14.24044120,.0002871,98.6097,195.7523,243.5040,116.5845,0,U,57166,999,15053,.1228E-4,-.15E-6,0
UMKA 1 (RS40S),2023-091G,2026-05-20T03:03:15.111072,15.20457496,.0012084,97.5063,198.9372,210.7613,149.2915,0,U,57172,999,15974,.18691E-3,.4016E-4,0
2023-091H,2023-091H,2026-05-20T03:50:23.467776,15.27961104,.0009523,97.5057,203.1371,203.2934,156.7875,0,U,57173,999,16002,.28252E-3,.7642E-4,0
2023-091J,2023-091J,2026-05-20T03:53:16.044000,15.13714061,.0011877,97.5071,193.6593,240.6971,119.3074,0,U,57174,999,15939,.14798E-3,.2603E-4,0
CUBEBEL 2 (EU11S),2023-091K,2026-05-20T04:04:26.332608,15.28420219,.0009583,97.5060,203.1500,204.8783,155.1996,0,U,57175,999,16002,.3073E-3,.8438E-4,0
SITRO-AIS 5 (KATYS),2023-091L,2026-05-20T04:37:11.692416,15.28737548,.0011423,97.5069,203.8387,193.1844,166.9099,0,U,57176,999,16006,.31846E-3,.8838E-4,0
ZORKIY-2M 1,2023-091M,2026-05-20T04:20:02.214816,15.20494333,.0012766,97.5103,199.2407,207.5596,152.4964,0,U,57177,999,15974,.21223E-3,.4576E-4,0
CUBESX-HSE 3 (RS42S),2023-091N,2026-05-20T04:43:42.797568,15.30425973,.0011136,97.5100,205.4453,183.1511,176.9661,0,U,57178,999,16014,.33676E-3,.9851E-4,0
MONITOR-3 (RS58S),2023-091Q,2026-05-20T03:52:06.580128,15.27211628,.0011713,97.5092,203.4126,190.6924,169.4067,0,U,57180,999,16001,.27626E-3,.7306E-4,0
